     2.11           N: GPS NAV DATA                         RINEX VERSION / TYPE
teqc  2019Feb25                         20240504 22:35:50UTCPGM / RUN BY / DATE
Linux 2.6.32-573.12.1.x86_64|x86_64|gcc -static|Linux 64|=+ COMMENT
TPP                 Reference Data Shop 2018-07-04 01:00:40 COMMENT
                                                            COMMENT
                                                            COMMENT
                                                            COMMENT
    4.6570D-09  1.4900D-08 -5.9600D-08 -1.1920D-07          ION ALPHA
    8.1920D+04  8.1920D+04 -6.5540D+04 -5.2430D+05          ION BETA
    9.313225746150D-10 2.664535259100D-15   233472     2008 DELTA-UTC: A0,A1,T,W
    18                                                      LEAP SECONDS
                                                            END OF HEADER
 3 18  7  1  2  0  0.0 9.827222675090D-05 6.366462912410D-12 0.000000000000D+00
    8.800000000000D+01-1.790625000000D+01 4.488758403380D-09-2.085929639710D+00
   -9.220093488690D-07 1.483840635050D-03 1.045875251290D-05 5.153731931690D+03
    7.200000000000D+03 1.490116119380D-08-2.330211899160D+00-3.911554813390D-08
    9.611640314030D-01 1.775625000000D+02 4.620383104360D-01-7.836755003730D-09
    4.850202030380D-10 0.000000000000D+00 2.008000000000D+03 0.000000000000D+00
    2.000000000000D+00 0.000000000000D+00 2.328306436540D-09 8.800000000000D+01
    1.800000000000D+01
26 18  7  1  2  0  0.0-9.835883975030D-05 1.227817847390D-11 0.000000000000D+00
    9.900000000000D+01 9.903125000000D+01 4.289464387690D-09 2.841929397840D+00
    5.153939127920D-06 2.787353587340D-03 8.206814527510D-06 5.153686645510D+03
    7.200000000000D+03 5.587935447690D-09 7.913404196020D-01 7.450580596920D-09
    9.555565771670D-01 2.194062500000D+02 1.178819095690D-01-7.946759585860D-09
    6.428839215530D-11 0.000000000000D+00 2.008000000000D+03 0.000000000000D+00
    4.000000000000D+00 0.000000000000D+00 7.450580596920D-09 9.900000000000D+01
    1.209000000000D+03
12 18  7  1  2  0  0.0 3.239465877410D-04-2.501110429880D-12 0.000000000000D+00
    4.500000000000D+01 1.109375000000D+02 3.546933458300D-09-2.439356125270D+00
    5.802139639850D-06 7.156845065770D-03 8.713454008100D-06 5.153573554990D+03
    7.200000000000D+03 1.862645149230D-09 8.740988788470D-01-6.705522537230D-08
    9.863722560090D-01 2.245625000000D+02 1.000760706320D+00-7.491740632500D-09
    1.692927660090D-10 0.000000000000D+00 2.008000000000D+03 0.000000000000D+00
    2.000000000000D+00 0.000000000000D+00-1.257285475730D-08 4.500000000000D+01
    1.363000000000D+03
23 18  7  1  2  0  0.0-2.151471562680D-04 5.684341886080D-13 0.000000000000D+00
    4.900000000000D+01 1.096875000000D+01 5.460584598120D-09-3.499794526550D-01
    5.941838026050D-07 1.262482523450D-02 4.937872290610D-06 5.153764610290D+03
    7.200000000000D+03-2.980232238770D-08-1.298236033500D+00 1.601874828340D-07
    9.430461055180D-01 2.726875000000D+02-2.347831634140D+00-8.622502018960D-09
   -2.071514858340D-11 0.000000000000D+00 2.008000000000D+03 0.000000000000D+00
    4.000000000000D+00 0.000000000000D+00-2.002343535420D-08 4.900000000000D+01
    2.297000000000D+03
